[{"OBJECT_NAME":"IRIDIUM 118","OBJECT_ID":"2017-039E","EPOCH":"2026-03-09T21:26:30.895296","MEAN_MOTION":14.34218754,"ECCENTRICITY":0.00022329,"INCLINATION":86.3973,"RA_OF_ASC_NODE":35.1169,"ARG_OF_PERICENTER":84.727,"MEAN_ANOMALY":275.4181,"EPHEMERIS_TYPE":0,"CLASSIFICATION_TYPE":"U","NORAD_CAT_ID":42807,"ELEMENT_SET_NO":999,"REV_AT_EPOCH":45571,"BSTAR":0.00012914778,"MEAN_MOTION_DOT":3.81e-6,"MEAN_MOTION_DDOT":0},{"OBJECT_NAME":"SL-8 R\/B","OBJECT_ID":"1974-071B","EPOCH":"2026-03-09T13:19:42.519072","MEAN_MOTION":14.38187805,"ECCENTRICITY":0.002129,"INCLINATION":74.0447,"RA_OF_ASC_NODE":116.5476,"ARG_OF_PERICENTER":316.6321,"MEAN_ANOMALY":43.3157,"EPHEMERIS_TYPE":0,"CLASSIFICATION_TYPE":"U","NORAD_CAT_ID":7434,"ELEMENT_SET_NO":999,"REV_AT_EPOCH":69425,"BSTAR":0.00010628,"MEAN_MOTION_DOT":2.97e-6,"MEAN_MOTION_DDOT":0}]
